<?xml version="1.0" encoding="UTF-8"?>
<ndm xmlns:xsi="http://www.w3.org/2001/XMLSchema-instance" xsi:noNamespaceSchemaLocation="https://sanaregistry.org/r/ndmxml_unqualified/ndmxml-2.0.0-master-2.0.xsd">
<omm id="CCSDS_OMM_VERS" version="2.0">
<header><CREATION_DATE/><ORIGINATOR/></header><body><segment><metadata><OBJECT_NAME>KUIPER-00053</OBJECT_NAME><OBJECT_ID>2025-134P</OBJECT_ID><CENTER_NAME>EARTH</CENTER_NAME><REF_FRAME>TEME</REF_FRAME><TIME_SYSTEM>UTC</TIME_SYSTEM><MEAN_ELEMENT_THEORY>SGP4</MEAN_ELEMENT_THEORY></metadata><data><meanElements><EPOCH>2025-08-15T00:12:19.898496</EPOCH><MEAN_MOTION>15.36916502</MEAN_MOTION><ECCENTRICITY>.0002238</ECCENTRICITY><INCLINATION>51.8770</INCLINATION><RA_OF_ASC_NODE>77.2160</RA_OF_ASC_NODE><ARG_OF_PERICENTER>278.6328</ARG_OF_PERICENTER><MEAN_ANOMALY>81.4405</MEAN_ANOMALY></meanElements><tleParameters><EPHEMERIS_TYPE>0</EPHEMERIS_TYPE><CLASSIFICATION_TYPE>U</CLASSIFICATION_TYPE><NORAD_CAT_ID>64513</NORAD_CAT_ID><ELEMENT_SET_NO>999</ELEMENT_SET_NO><REV_AT_EPOCH>932</REV_AT_EPOCH><BSTAR>.10623E-2</BSTAR><MEAN_MOTION_DOT>.38756E-3</MEAN_MOTION_DOT><MEAN_MOTION_DDOT>0</MEAN_MOTION_DDOT></tleParameters></data></segment></body></omm>
<omm id="CCSDS_OMM_VERS" version="2.0">
<header><CREATION_DATE/><ORIGINATOR/></header><body><segment><metadata><OBJECT_NAME>KUIPER-00054</OBJECT_NAME><OBJECT_ID>2025-134Q</OBJECT_ID><CENTER_NAME>EARTH</CENTER_NAME><REF_FRAME>TEME</REF_FRAME><TIME_SYSTEM>UTC</TIME_SYSTEM><MEAN_ELEMENT_THEORY>SGP4</MEAN_ELEMENT_THEORY></metadata><data><meanElements><EPOCH>2025-08-15T20:39:35.419968</EPOCH><MEAN_MOTION>15.36853212</MEAN_MOTION><ECCENTRICITY>.0003513</ECCENTRICITY><INCLINATION>51.8759</INCLINATION><RA_OF_ASC_NODE>73.1743</RA_OF_ASC_NODE><ARG_OF_PERICENTER>289.8878</ARG_OF_PERICENTER><MEAN_ANOMALY>70.1729</MEAN_ANOMALY></meanElements><tleParameters><EPHEMERIS_TYPE>0</EPHEMERIS_TYPE><CLASSIFICATION_TYPE>U</CLASSIFICATION_TYPE><NORAD_CAT_ID>64514</NORAD_CAT_ID><ELEMENT_SET_NO>999</ELEMENT_SET_NO><REV_AT_EPOCH>939</REV_AT_EPOCH><BSTAR>.95983E-3</BSTAR><MEAN_MOTION_DOT>.34893E-3</MEAN_MOTION_DOT><MEAN_MOTION_DDOT>0</MEAN_MOTION_DDOT></tleParameters></data></segment></body></omm>
<omm id="CCSDS_OMM_VERS" version="2.0">
<header><CREATION_DATE/><ORIGINATOR/></header><body><segment><metadata><OBJECT_NAME>KUIPER-00055</OBJECT_NAME><OBJECT_ID>2025-134R</OBJECT_ID><CENTER_NAME>EARTH</CENTER_NAME><REF_FRAME>TEME</REF_FRAME><TIME_SYSTEM>UTC</TIME_SYSTEM><MEAN_ELEMENT_THEORY>SGP4</MEAN_ELEMENT_THEORY></metadata><data><meanElements><EPOCH>2025-08-16T07:02:20.340672</EPOCH><MEAN_MOTION>15.37520642</MEAN_MOTION><ECCENTRICITY>.0001466</ECCENTRICITY><INCLINATION>51.8812</INCLINATION><RA_OF_ASC_NODE>70.8344</RA_OF_ASC_NODE><ARG_OF_PERICENTER>261.4696</ARG_OF_PERICENTER><MEAN_ANOMALY>98.6125</MEAN_ANOMALY></meanElements><tleParameters><EPHEMERIS_TYPE>0</EPHEMERIS_TYPE><CLASSIFICATION_TYPE>U</CLASSIFICATION_TYPE><NORAD_CAT_ID>64515</NORAD_CAT_ID><ELEMENT_SET_NO>999</ELEMENT_SET_NO><REV_AT_EPOCH>937</REV_AT_EPOCH><BSTAR>.69741E-3</BSTAR><MEAN_MOTION_DOT>.25769E-3</MEAN_MOTION_DOT><MEAN_MOTION_DDOT>0</MEAN_MOTION_DDOT></tleParameters></data></segment></body></omm>
<omm id="CCSDS_OMM_VERS" version="2.0">
<header><CREATION_DATE/><ORIGINATOR/></header><body><segment><metadata><OBJECT_NAME>KUIPER-00056</OBJECT_NAME><OBJECT_ID>2025-134S</OBJECT_ID><CENTER_NAME>EARTH</CENTER_NAME><REF_FRAME>TEME</REF_FRAME><TIME_SYSTEM>UTC</TIME_SYSTEM><MEAN_ELEMENT_THEORY>SGP4</MEAN_ELEMENT_THEORY></metadata><data><meanElements><EPOCH>2025-08-16T06:12:58.308480</EPOCH><MEAN_MOTION>15.36621818</MEAN_MOTION><ECCENTRICITY>.0003865</ECCENTRICITY><INCLINATION>51.8731</INCLINATION><RA_OF_ASC_NODE>71.3356</RA_OF_ASC_NODE><ARG_OF_PERICENTER>291.8886</ARG_OF_PERICENTER><MEAN_ANOMALY>68.1689</MEAN_ANOMALY></meanElements><tleParameters><EPHEMERIS_TYPE>0</EPHEMERIS_TYPE><CLASSIFICATION_TYPE>U</CLASSIFICATION_TYPE><NORAD_CAT_ID>64516</NORAD_CAT_ID><ELEMENT_SET_NO>999</ELEMENT_SET_NO><REV_AT_EPOCH>905</REV_AT_EPOCH><BSTAR>.74769E-3</BSTAR><MEAN_MOTION_DOT>.26864E-3</MEAN_MOTION_DOT><MEAN_MOTION_DDOT>0</MEAN_MOTION_DDOT></tleParameters></data></segment></body></omm>
<omm id="CCSDS_OMM_VERS" version="2.0">
<header><CREATION_DATE/><ORIGINATOR/></header><body><segment><metadata><OBJECT_NAME>KUIPER-00057</OBJECT_NAME><OBJECT_ID>2025-134T</OBJECT_ID><CENTER_NAME>EARTH</CENTER_NAME><REF_FRAME>TEME</REF_FRAME><TIME_SYSTEM>UTC</TIME_SYSTEM><MEAN_ELEMENT_THEORY>SGP4</MEAN_ELEMENT_THEORY></metadata><data><meanElements><EPOCH>2025-08-16T07:06:08.290656</EPOCH><MEAN_MOTION>15.34424556</MEAN_MOTION><ECCENTRICITY>.0006952</ECCENTRICITY><INCLINATION>51.8698</INCLINATION><RA_OF_ASC_NODE>71.5557</RA_OF_ASC_NODE><ARG_OF_PERICENTER>305.2910</ARG_OF_PERICENTER><MEAN_ANOMALY>54.7425</MEAN_ANOMALY></meanElements><tleParameters><EPHEMERIS_TYPE>0</EPHEMERIS_TYPE><CLASSIFICATION_TYPE>U</CLASSIFICATION_TYPE><NORAD_CAT_ID>64517</NORAD_CAT_ID><ELEMENT_SET_NO>999</ELEMENT_SET_NO><REV_AT_EPOCH>916</REV_AT_EPOCH><BSTAR>.76723E-3</BSTAR><MEAN_MOTION_DOT>.25693E-3</MEAN_MOTION_DOT><MEAN_MOTION_DDOT>0</MEAN_MOTION_DDOT></tleParameters></data></segment></body></omm>
<omm id="CCSDS_OMM_VERS" version="2.0">
<header><CREATION_DATE/><ORIGINATOR/></header><body><segment><metadata><OBJECT_NAME>KUIPER-00058</OBJECT_NAME><OBJECT_ID>2025-134U</OBJECT_ID><CENTER_NAME>EARTH</CENTER_NAME><REF_FRAME>TEME</REF_FRAME><TIME_SYSTEM>UTC</TIME_SYSTEM><MEAN_ELEMENT_THEORY>SGP4</MEAN_ELEMENT_THEORY></metadata><data><meanElements><EPOCH>2025-08-16T06:29:34.142784</EPOCH><MEAN_MOTION>15.36229343</MEAN_MOTION><ECCENTRICITY>.0005314</ECCENTRICITY><INCLINATION>51.8722</INCLINATION><RA_OF_ASC_NODE>71.4029</RA_OF_ASC_NODE><ARG_OF_PERICENTER>299.0388</ARG_OF_PERICENTER><MEAN_ANOMALY>61.0066</MEAN_ANOMALY></meanElements><tleParameters><EPHEMERIS_TYPE>0</EPHEMERIS_TYPE><CLASSIFICATION_TYPE>U</CLASSIFICATION_TYPE><NORAD_CAT_ID>64518</NORAD_CAT_ID><ELEMENT_SET_NO>999</ELEMENT_SET_NO><REV_AT_EPOCH>905</REV_AT_EPOCH><BSTAR>.85562E-3</BSTAR><MEAN_MOTION_DOT>.30428E-3</MEAN_MOTION_DOT><MEAN_MOTION_DDOT>0</MEAN_MOTION_DDOT></tleParameters></data></segment></body></omm>
<omm id="CCSDS_OMM_VERS" version="2.0">
<header><CREATION_DATE/><ORIGINATOR/></header><body><segment><metadata><OBJECT_NAME>KUIPER-00059</OBJECT_NAME><OBJECT_ID>2025-134V</OBJECT_ID><CENTER_NAME>EARTH</CENTER_NAME><REF_FRAME>TEME</REF_FRAME><TIME_SYSTEM>UTC</TIME_SYSTEM><MEAN_ELEMENT_THEORY>SGP4</MEAN_ELEMENT_THEORY></metadata><data><meanElements><EPOCH>2025-08-16T07:06:37.515456</EPOCH><MEAN_MOTION>15.37387216</MEAN_MOTION><ECCENTRICITY>.0001428</ECCENTRICITY><INCLINATION>51.8764</INCLINATION><RA_OF_ASC_NODE>70.8495</RA_OF_ASC_NODE><ARG_OF_PERICENTER>258.0181</ARG_OF_PERICENTER><MEAN_ANOMALY>102.0646</MEAN_ANOMALY></meanElements><tleParameters><EPHEMERIS_TYPE>0</EPHEMERIS_TYPE><CLASSIFICATION_TYPE>U</CLASSIFICATION_TYPE><NORAD_CAT_ID>64519</NORAD_CAT_ID><ELEMENT_SET_NO>999</ELEMENT_SET_NO><REV_AT_EPOCH>905</REV_AT_EPOCH><BSTAR>.72732E-3</BSTAR><MEAN_MOTION_DOT>.26778E-3</MEAN_MOTION_DOT><MEAN_MOTION_DDOT>0</MEAN_MOTION_DDOT></tleParameters></data></segment></body></omm>
<omm id="CCSDS_OMM_VERS" version="2.0">
<header><CREATION_DATE/><ORIGINATOR/></header><body><segment><metadata><OBJECT_NAME>KUIPER-00060</OBJECT_NAME><OBJECT_ID>2025-134W</OBJECT_ID><CENTER_NAME>EARTH</CENTER_NAME><REF_FRAME>TEME</REF_FRAME><TIME_SYSTEM>UTC</TIME_SYSTEM><MEAN_ELEMENT_THEORY>SGP4</MEAN_ELEMENT_THEORY></metadata><data><meanElements><EPOCH>2025-08-15T23:28:31.579392</EPOCH><MEAN_MOTION>15.37285611</MEAN_MOTION><ECCENTRICITY>.0002441</ECCENTRICITY><INCLINATION>51.8773</INCLINATION><RA_OF_ASC_NODE>72.4680</RA_OF_ASC_NODE><ARG_OF_PERICENTER>252.7048</ARG_OF_PERICENTER><MEAN_ANOMALY>107.3672</MEAN_ANOMALY></meanElements><tleParameters><EPHEMERIS_TYPE>0</EPHEMERIS_TYPE><CLASSIFICATION_TYPE>U</CLASSIFICATION_TYPE><NORAD_CAT_ID>64520</NORAD_CAT_ID><ELEMENT_SET_NO>999</ELEMENT_SET_NO><REV_AT_EPOCH>901</REV_AT_EPOCH><BSTAR>.80174E-3</BSTAR><MEAN_MOTION_DOT>.29472E-3</MEAN_MOTION_DOT><MEAN_MOTION_DDOT>0</MEAN_MOTION_DDOT></tleParameters></data></segment></body></omm>

</ndm>
