KUIPER-00053            
1 64513U 25134P   25227.00856364  .00038756  00000+0  10623-2 0  9996
2 64513  51.8770  77.2160 0002238 278.6328  81.4405 15.36916502  9327
KUIPER-00054            
1 64514U 25134Q   25227.86082662  .00034893  00000+0  95983-3 0  9994
2 64514  51.8759  73.1743 0003513 289.8878  70.1729 15.36853212  9397
KUIPER-00055            
1 64515U 25134R   25228.29329098  .00025769  00000+0  69741-3 0  9995
2 64515  51.8812  70.8344 0001466 261.4696  98.6125 15.37520642  9370
KUIPER-00056            
1 64516U 25134S   25228.25900820  .00026864  00000+0  74769-3 0  9993
2 64516  51.8731  71.3356 0003865 291.8886  68.1689 15.36621818  9051
KUIPER-00057            
1 64517U 25134T   25228.29592929  .00025693  00000+0  76723-3 0  9996
2 64517  51.8698  71.5557 0006952 305.2910  54.7425 15.34424556  9166
KUIPER-00058            
1 64518U 25134U   25228.27053406  .00030428  00000+0  85562-3 0  9990
2 64518  51.8722  71.4029 0005314 299.0388  61.0066 15.36229343  9057
KUIPER-00059            
1 64519U 25134V   25228.29626754  .00026778  00000+0  72732-3 0  9993
2 64519  51.8764  70.8495 0001428 258.0181 102.0646 15.37387216  9057
KUIPER-00060            
1 64520U 25134W   25227.97814328  .00029472  00000+0  80174-3 0  9998
2 64520  51.8773  72.4680 0002441 252.7048 107.3672 15.37285611  9011
